TIANMU-1 08             
1 57400U 23101B   26066.00237819  .00000346  00000+0  14775-4 0  9993
2 57400  97.2717 118.7901 0006380 134.2174 225.9592 15.29204229146020
STARLINK-32078          
1 60338U 24136K   26068.42737167  .00003380  00000+0  12624-3 0  9996
2 60338  53.1610  76.9367 0001397  99.4647 260.6512 15.30183824 89627
